DUPLEX                  
1 66906U 98067XS  26099.83834141  .00027767  00000+0  36408-3 0  9997
2 66906  51.6283 273.4080 0003598 265.6183  94.4398 15.58333225 19985
ISS OBJECT XT           
1 66907U 98067XT  26098.84614494  .00301366  00000+0  13446-2 0  9991
2 66907  51.6214 270.4728 0008369 277.8319  82.1733 15.82828935 19939
ISS OBJECT XU           
1 66908U 98067XU  26099.84969020  .00304231  00000+0  12922-2 0  9993
2 66908  51.6206 265.1662 0008691 282.1116  77.8914 15.83860648 20090
SILVERSAT               
1 66909U 98067XV  26099.87526971  .00559522  13679-3  15127-2 0  9996
2 66909  51.6162 263.0552 0011158 291.0799  68.9015 15.93591833 20120
ISS OBJECT XW           
1 66910U 98067XW  26098.86674538  .00245268  00000+0  12367-2 0  9991
2 66910  51.6198 270.6025 0008311 272.5207  87.4843 15.80341100 19933
ISS OBJECT XX           
1 66911U 98067XX  26099.85627032  .02454730  91411-2  19662-2 0  9991
2 66911  51.6079 260.6037 0013678 296.9856  62.9763 16.15715135 20142
ISS OBJECT XY           
1 66912U 98067XY  26098.87654019  .00107568  00000+0  84837-3 0  9998
2 66912  51.6252 273.7143 0005572 269.5451  90.4908 15.70570969 19880
KNACKSAT-2              
1 67683U 98067XZ  26099.86922060  .00036065  00000+0  53953-3 0  9996
2 67683  51.6307 276.6160 0011012 302.4944  57.4981 15.54571080  9631
CORAL                   
1 67684U 98067YA  26098.80298254  .00085187  00000+0  10265-2 0  9998
2 67684  51.6284 280.7446 0014187 289.1392  70.8065 15.59943936  9486
GXIBA-1                 
1 67685U 98067YB  26099.85443961  .00040873  00000+0  59441-3 0  9995
2 67685  51.6300 276.5168 0012910 299.2817  60.6883 15.55258740  9636
UITMSAT-2               
1 67686U 98067YC  26098.86813607  .00049340  00000+0  68603-3 0  9992
2 67686  51.6303 281.1836 0009865 271.3376  88.6486 15.56431458  9482
HMU-SAT2                
1 67687U 98067YD  26099.86147696  .00037279  00000+0  54987-3 0  9990
2 67687  51.6320 276.5683 0009386 277.6177  82.3748 15.54960934  9550
LEOPARD                 
1 67688U 98067YE  26098.87837377  .00042408  00000+0  60389-3 0  9996
2 67688  51.6302 281.2523 0009494 271.8691  88.1213 15.55857474  9404
CREW DRAGON 12          
1 67796U 26031A   26099.81181649  .00006374  00000+0  12437-3 0  9990
2 67796  51.6329 278.4805 0006426 293.1753  66.8558 15.48850892561173
PROGRESS-MS 33          
1 68319U 26058A   26099.81181649  .00006374  00000+0  12437-3 0  9991
2 68319  51.6329 278.4805 0006426 293.1753  66.8558 15.48850892  2681
