[{"OBJECT_NAME":"DUPLEX","OBJECT_ID":"1998-067XS","EPOCH":"2026-04-09T20:07:12.697824","MEAN_MOTION":15.58333225,"ECCENTRICITY":0.0003598,"INCLINATION":51.6283,"RA_OF_ASC_NODE":273.408,"ARG_OF_PERICENTER":265.6183,"MEAN_ANOMALY":94.4398,"EPHEMERIS_TYPE":0,"CLASSIFICATION_TYPE":"U","NORAD_CAT_ID":66906,"ELEMENT_SET_NO":999,"REV_AT_EPOCH":1998,"BSTAR":0.00036408,"MEAN_MOTION_DOT":0.00027767,"MEAN_MOTION_DDOT":0},{"OBJECT_NAME":"ISS OBJECT XT","OBJECT_ID":"1998-067XT","EPOCH":"2026-04-08T20:18:26.922816","MEAN_MOTION":15.82828935,"ECCENTRICITY":0.00083693,"INCLINATION":51.6214,"RA_OF_ASC_NODE":270.4728,"ARG_OF_PERICENTER":277.8319,"MEAN_ANOMALY":82.1733,"EPHEMERIS_TYPE":0,"CLASSIFICATION_TYPE":"U","NORAD_CAT_ID":66907,"ELEMENT_SET_NO":999,"REV_AT_EPOCH":1993,"BSTAR":0.0013445904,"MEAN_MOTION_DOT":0.00301366,"MEAN_MOTION_DDOT":0},{"OBJECT_NAME":"ISS OBJECT XU","OBJECT_ID":"1998-067XU","EPOCH":"2026-04-09T20:23:33.233280","MEAN_MOTION":15.83860648,"ECCENTRICITY":0.0008691,"INCLINATION":51.6206,"RA_OF_ASC_NODE":265.1662,"ARG_OF_PERICENTER":282.1116,"MEAN_ANOMALY":77.8914,"EPHEMERIS_TYPE":0,"CLASSIFICATION_TYPE":"U","NORAD_CAT_ID":66908,"ELEMENT_SET_NO":999,"REV_AT_EPOCH":2009,"BSTAR":0.0012922,"MEAN_MOTION_DOT":0.00304231,"MEAN_MOTION_DDOT":0},{"OBJECT_NAME":"SILVERSAT","OBJECT_ID":"1998-067XV","EPOCH":"2026-04-09T21:00:23.302944","MEAN_MOTION":15.93591833,"ECCENTRICITY":0.0011158,"INCLINATION":51.6162,"RA_OF_ASC_NODE":263.0552,"ARG_OF_PERICENTER":291.0799,"MEAN_ANOMALY":68.9015,"EPHEMERIS_TYPE":0,"CLASSIFICATION_TYPE":"U","NORAD_CAT_ID":66909,"ELEMENT_SET_NO":999,"REV_AT_EPOCH":2012,"BSTAR":0.0015127,"MEAN_MOTION_DOT":0.00559522,"MEAN_MOTION_DDOT":0.00013679},{"OBJECT_NAME":"ISS OBJECT XW","OBJECT_ID":"1998-067XW","EPOCH":"2026-04-08T20:48:06.800832","MEAN_MOTION":15.803411,"ECCENTRICITY":0.0008311,"INCLINATION":51.6198,"RA_OF_ASC_NODE":270.6025,"ARG_OF_PERICENTER":272.5207,"MEAN_ANOMALY":87.4843,"EPHEMERIS_TYPE":0,"CLASSIFICATION_TYPE":"U","NORAD_CAT_ID":66910,"ELEMENT_SET_NO":999,"REV_AT_EPOCH":1993,"BSTAR":0.0012367,"MEAN_MOTION_DOT":0.00245268,"MEAN_MOTION_DDOT":0},{"OBJECT_NAME":"ISS OBJECT XX","OBJECT_ID":"1998-067XX","EPOCH":"2026-04-09T20:33:01.755648","MEAN_MOTION":16.15715135,"ECCENTRICITY":0.0013678,"INCLINATION":51.6079,"RA_OF_ASC_NODE":260.6037,"ARG_OF_PERICENTER":296.9856,"MEAN_ANOMALY":62.9763,"EPHEMERIS_TYPE":0,"CLASSIFICATION_TYPE":"U","NORAD_CAT_ID":66911,"ELEMENT_SET_NO":999,"REV_AT_EPOCH":2014,"BSTAR":0.0019662,"MEAN_MOTION_DOT":0.0245473,"MEAN_MOTION_DDOT":0.0091411},{"OBJECT_NAME":"ISS OBJECT XY","OBJECT_ID":"1998-067XY","EPOCH":"2026-04-08T21:02:13.072416","MEAN_MOTION":15.70570969,"ECCENTRICITY":0.0005572,"INCLINATION":51.6252,"RA_OF_ASC_NODE":273.7143,"ARG_OF_PERICENTER":269.5451,"MEAN_ANOMALY":90.4908,"EPHEMERIS_TYPE":0,"CLASSIFICATION_TYPE":"U","NORAD_CAT_ID":66912,"ELEMENT_SET_NO":999,"REV_AT_EPOCH":1988,"BSTAR":0.00084837,"MEAN_MOTION_DOT":0.00107568,"MEAN_MOTION_DDOT":0},{"OBJECT_NAME":"KNACKSAT-2","OBJECT_ID":"1998-067XZ","EPOCH":"2026-04-09T20:51:40.659840","MEAN_MOTION":15.5457108,"ECCENTRICITY":0.0011012,"INCLINATION":51.6307,"RA_OF_ASC_NODE":276.616,"ARG_OF_PERICENTER":302.4944,"MEAN_ANOMALY":57.4981,"EPHEMERIS_TYPE":0,"CLASSIFICATION_TYPE":"U","NORAD_CAT_ID":67683,"ELEMENT_SET_NO":999,"REV_AT_EPOCH":963,"BSTAR":0.00053953,"MEAN_MOTION_DOT":0.00036065,"MEAN_MOTION_DDOT":0},{"OBJECT_NAME":"CORAL","OBJECT_ID":"1998-067YA","EPOCH":"2026-04-08T19:16:17.691456","MEAN_MOTION":15.59943936,"ECCENTRICITY":0.00141878,"INCLINATION":51.6284,"RA_OF_ASC_NODE":280.7446,"ARG_OF_PERICENTER":289.1392,"MEAN_ANOMALY":70.8065,"EPHEMERIS_TYPE":0,"CLASSIFICATION_TYPE":"U","NORAD_CAT_ID":67684,"ELEMENT_SET_NO":999,"REV_AT_EPOCH":948,"BSTAR":0.0010264622,"MEAN_MOTION_DOT":0.00085187,"MEAN_MOTION_DDOT":0},{"OBJECT_NAME":"GXIBA-1","OBJECT_ID":"1998-067YB","EPOCH":"2026-04-09T20:30:23.582304","MEAN_MOTION":15.5525874,"ECCENTRICITY":0.001291,"INCLINATION":51.63,"RA_OF_ASC_NODE":276.5168,"ARG_OF_PERICENTER":299.2817,"MEAN_ANOMALY":60.6883,"EPHEMERIS_TYPE":0,"CLASSIFICATION_TYPE":"U","NORAD_CAT_ID":67685,"ELEMENT_SET_NO":999,"REV_AT_EPOCH":963,"BSTAR":0.00059441,"MEAN_MOTION_DOT":0.00040873,"MEAN_MOTION_DDOT":0},{"OBJECT_NAME":"UITMSAT-2","OBJECT_ID":"1998-067YC","EPOCH":"2026-04-08T20:50:06.956448","MEAN_MOTION":15.56431458,"ECCENTRICITY":0.0009865,"INCLINATION":51.6303,"RA_OF_ASC_NODE":281.1836,"ARG_OF_PERICENTER":271.3376,"MEAN_ANOMALY":88.6486,"EPHEMERIS_TYPE":0,"CLASSIFICATION_TYPE":"U","NORAD_CAT_ID":67686,"ELEMENT_SET_NO":999,"REV_AT_EPOCH":948,"BSTAR":0.00068603,"MEAN_MOTION_DOT":0.0004934,"MEAN_MOTION_DDOT":0},{"OBJECT_NAME":"HMU-SAT2","OBJECT_ID":"1998-067YD","EPOCH":"2026-04-09T20:40:31.609344","MEAN_MOTION":15.54960934,"ECCENTRICITY":0.0009386,"INCLINATION":51.632,"RA_OF_ASC_NODE":276.5683,"ARG_OF_PERICENTER":277.6177,"MEAN_ANOMALY":82.3748,"EPHEMERIS_TYPE":0,"CLASSIFICATION_TYPE":"U","NORAD_CAT_ID":67687,"ELEMENT_SET_NO":999,"REV_AT_EPOCH":955,"BSTAR":0.00054987,"MEAN_MOTION_DOT":0.00037279,"MEAN_MOTION_DDOT":0},{"OBJECT_NAME":"LEOPARD","OBJECT_ID":"1998-067YE","EPOCH":"2026-04-08T21:04:51.493728","MEAN_MOTION":15.55857474,"ECCENTRICITY":0.0009494,"INCLINATION":51.6302,"RA_OF_ASC_NODE":281.2523,"ARG_OF_PERICENTER":271.8691,"MEAN_ANOMALY":88.1213,"EPHEMERIS_TYPE":0,"CLASSIFICATION_TYPE":"U","NORAD_CAT_ID":67688,"ELEMENT_SET_NO":999,"REV_AT_EPOCH":940,"BSTAR":0.00060389,"MEAN_MOTION_DOT":0.00042408,"MEAN_MOTION_DDOT":0},{"OBJECT_NAME":"CREW DRAGON 12","OBJECT_ID":"2026-031A","EPOCH":"2026-04-09T19:29:00.944736","MEAN_MOTION":15.48850892,"ECCENTRICITY":0.0006426,"INCLINATION":51.6329,"RA_OF_ASC_NODE":278.4805,"ARG_OF_PERICENTER":293.1753,"MEAN_ANOMALY":66.8558,"EPHEMERIS_TYPE":0,"CLASSIFICATION_TYPE":"U","NORAD_CAT_ID":67796,"ELEMENT_SET_NO":999,"REV_AT_EPOCH":56117,"BSTAR":0.00012437,"MEAN_MOTION_DOT":6.374e-5,"MEAN_MOTION_DDOT":0},{"OBJECT_NAME":"PROGRESS-MS 33","OBJECT_ID":"2026-058A","EPOCH":"2026-04-09T19:29:00.944736","MEAN_MOTION":15.48850892,"ECCENTRICITY":0.0006426,"INCLINATION":51.6329,"RA_OF_ASC_NODE":278.4805,"ARG_OF_PERICENTER":293.1753,"MEAN_ANOMALY":66.8558,"EPHEMERIS_TYPE":0,"CLASSIFICATION_TYPE":"U","NORAD_CAT_ID":68319,"ELEMENT_SET_NO":999,"REV_AT_EPOCH":268,"BSTAR":0.00012437,"MEAN_MOTION_DOT":6.374e-5,"MEAN_MOTION_DDOT":0}]
